OBJECT_NAME,OBJECT_ID,EPOCH,MEAN_MOTION,ECCENTRICITY,INCLINATION,RA_OF_ASC_NODE,ARG_OF_PERICENTER,MEAN_ANOMALY,EPHEMERIS_TYPE,CLASSIFICATION_TYPE,NORAD_CAT_ID,ELEMENT_SET_NO,REV_AT_EPOCH,BSTAR,MEAN_MOTION_DOT,MEAN_MOTION_DDOT
ONEWEB-0131,2020-100V,2026-06-26T04:22:45.331104,13.12443565,.0001633,87.8942,348.8803,94.8319,265.2996,0,U,47277,999,26586,-.36376E-3,-.118E-5,0
ONEWEB-0132,2020-100W,2026-06-25T23:34:51.945888,13.12444562,.0001741,87.8943,348.9223,93.1472,266.9856,0,U,47278,999,26573,-.68505E-3,-.234E-5,0
ONEWEB-0133,2020-100X,2026-06-25T23:59:04.844832,13.12443094,.0001667,87.8954,348.8960,93.5830,266.5490,0,U,47279,999,26589,.10828E-2,.402E-5,0
ONEWEB-0134,2020-100Y,2026-06-25T23:15:20.443104,13.12441285,.0001801,87.8955,348.8991,101.1620,258.9711,0,U,47280,999,26586,-.11622E-2,-.405E-5,0
ONEWEB-0135,2020-100Z,2026-06-26T04:03:14.041728,13.12441200,.0001665,87.8943,348.8810,101.6333,258.4983,0,U,47281,999,26591,.8948E-3,.335E-5,0
ONEWEB-0136,2020-100AA,2026-06-26T04:30:03.354048,13.12441122,.00018,87.8950,348.8593,102.7184,257.4145,0,U,47282,999,26584,-.66084E-3,-.225E-5,0
ONEWEB-0137,2020-100AB,2026-06-25T23:49:31.325088,13.12442944,.0001935,87.8954,348.9086,89.1341,271.0009,0,U,47283,999,26572,.54141E-3,.207E-5,0
ONEWEB-0138,2020-100AC,2026-06-25T23:17:47.393952,13.12442323,.0001852,87.8953,348.9179,100.4698,259.6639,0,U,47284,999,26580,-.15394E-2,-.541E-5,0
ONEWEB-0139,2020-100AD,2026-06-26T00:16:33.572352,13.12440985,.0001862,87.8950,348.8963,94.0801,266.0540,0,U,47285,999,26588,.10755E-2,.4E-5,0
ONEWEB-0140,2020-100AE,2026-06-26T04:39:48.803040,13.12441348,.0001653,87.8953,348.8509,92.2389,267.8929,0,U,47286,999,26587,-.10383E-2,-.361E-5,0
ONEWEB-0141,2020-100AF,2026-06-26T00:16:09.475392,13.12441468,.0002081,87.8951,348.8922,87.8316,272.3051,0,U,47287,999,26583,.10501E-2,.391E-5,0
ONEWEB-0142,2020-100AG,2026-06-25T23:59:30.147072,13.12443929,.0002229,87.8946,348.9156,94.9290,265.2093,0,U,47288,999,26582,.11043E-2,.41E-5,0
ONEWEB-0143,2020-100AH,2026-06-26T00:13:55.149312,13.12441609,.0001848,87.8951,348.9128,92.0860,268.0480,0,U,47289,999,26580,.11037E-2,.41E-5,0
ONEWEB-0144,2020-100AJ,2026-06-25T23:32:26.020608,13.12445612,.0002025,87.8955,348.8930,102.0651,258.0704,0,U,47290,999,26572,-.42654E-3,-.141E-5,0
ONEWEB-0145,2020-100AK,2026-06-26T04:20:18.261024,13.12441339,.0001898,87.8944,348.8799,94.2783,265.8562,0,U,47291,999,26594,-.44346E-4,-.3E-7,0
ONEWEB-0146,2020-100AL,2026-06-26T04:15:25.828992,13.12441234,.0001548,87.8953,348.8729,84.6798,275.4507,0,U,47292,999,26585,.1991E-3,.84E-6,0
ONEWEB-0147,2020-100AM,2026-06-25T23:47:04.922016,13.12443434,.0001706,87.8952,348.8920,95.9703,264.1620,0,U,47293,999,26572,.61482E-3,.234E-5,0
ONEWEB-0115,2021-025A,2026-06-25T22:28:02.808768,13.13469779,.000177,87.8963,318.4814,96.8958,263.2372,0,U,48042,999,25474,.23631E-3,.99E-6,0
ONEWEB-0152,2021-025B,2026-06-25T22:47:32.086752,13.13469846,.0001726,87.8970,318.4758,96.2535,263.8791,0,U,48043,999,25470,-.67459E-3,-.234E-5,0
ONEWEB-0153,2021-025C,2026-06-26T03:44:55.903776,13.13470454,.000198,87.8960,318.4367,100.6253,259.5099,0,U,48044,999,25472,.91872E-3,.348E-5,0
ONEWEB-0154,2021-025D,2026-06-26T03:40:03.360288,13.13468516,.0001513,87.8963,318.4357,106.3202,253.8094,0,U,48045,999,25468,.86752E-3,.33E-5,0
ONEWEB-0116,2021-025E,2026-06-25T21:17:20.603328,13.13469717,.0001721,87.8970,318.4857,97.3847,262.7477,0,U,48046,999,25479,-.87775E-3,-.308E-5,0
ONEWEB-0150,2021-025F,2026-06-25T20:43:13.200672,13.13469221,.0002005,87.8967,318.4875,93.3154,266.8204,0,U,48047,999,25468,-.16216E-3,-.46E-6,0
ONEWEB-0107,2021-025G,2026-06-25T22:35:21.193728,13.13469352,.0002107,87.8971,318.4681,101.0399,259.0967,0,U,48048,999,25467,-.2826E-3,-.9E-6,0
ONEWEB-0101,2021-025H,2026-06-25T21:41:45.237984,13.13450568,.0001906,87.8955,318.4902,102.9785,257.1557,0,U,48049,999,25464,-.62102E-2,-.2254E-4,0
ONEWEB-0113,2021-025J,2026-06-26T03:41:44.057760,13.13892165,.0001853,87.8962,318.3499,94.0733,266.0608,0,U,48050,999,25478,.57886E-3,.225E-5,0
ONEWEB-0112,2021-025K,2026-06-25T22:42:39.531168,13.13470363,.0001922,87.8967,318.4652,105.0104,255.1237,0,U,48051,999,25474,-.3282E-3,-.107E-5,0
ONEWEB-0156,2021-025L,2026-06-25T21:05:08.897280,13.13465788,.0002189,87.8967,318.4885,91.3510,268.7870,0,U,48052,999,25471,.17677E-2,.658E-5,0
ONEWEB-0161,2021-025M,2026-06-25T22:18:16.710048,13.13470937,.0002058,87.8966,318.4796,98.8076,261.3287,0,U,48053,999,25465,.63761E-3,.246E-5,0
ONEWEB-0158,2021-025N,2026-06-25T21:19:46.017120,13.13472357,.0001619,87.8968,318.4853,101.2762,258.8549,0,U,48054,999,25477,-.63117E-3,-.218E-5,0
