ONEWEB-0131             
1 47277U 20100V   26177.18246911 -.00000118  00000+0 -36376-3 0  9994
2 47277  87.8942 348.8803 0001633  94.8319 265.2996 13.12443565265868
ONEWEB-0132             
1 47278U 20100W   26176.98254567 -.00000234  00000+0 -68505-3 0  9996
2 47278  87.8943 348.9223 0001741  93.1472 266.9856 13.12444562265736
ONEWEB-0133             
1 47279U 20100X   26176.99936163  .00000402  00000+0  10828-2 0  9996
2 47279  87.8954 348.8960 0001667  93.5830 266.5490 13.12443094265891
ONEWEB-0134             
1 47280U 20100Y   26176.96898661 -.00000405  00000+0 -11622-2 0  9993
2 47280  87.8955 348.8991 0001801 101.1620 258.9711 13.12441285265869
ONEWEB-0135             
1 47281U 20100Z   26177.16891252  .00000335  00000+0  89480-3 0  9994
2 47281  87.8943 348.8810 0001665 101.6333 258.4983 13.12441200265910
ONEWEB-0136             
1 47282U 20100AA  26177.18753882 -.00000225  00000+0 -66084-3 0  9998
2 47282  87.8950 348.8593 0001800 102.7184 257.4145 13.12441122265848
ONEWEB-0137             
1 47283U 20100AB  26176.99272367  .00000207  00000+0  54141-3 0  9990
2 47283  87.8954 348.9086 0001935  89.1341 271.0009 13.12442944265724
ONEWEB-0138             
1 47284U 20100AC  26176.97068743 -.00000541  00000+0 -15394-2 0  9999
2 47284  87.8953 348.9179 0001852 100.4698 259.6639 13.12442323265808
ONEWEB-0139             
1 47285U 20100AD  26177.01149968  .00000400  00000+0  10755-2 0  9993
2 47285  87.8950 348.8963 0001862  94.0801 266.0540 13.12440985265884
ONEWEB-0140             
1 47286U 20100AE  26177.19431485 -.00000361  00000+0 -10383-2 0  9996
2 47286  87.8953 348.8509 0001653  92.2389 267.8929 13.12441348265876
ONEWEB-0141             
1 47287U 20100AF  26177.01122078  .00000391  00000+0  10501-2 0  9996
2 47287  87.8951 348.8922 0002081  87.8316 272.3051 13.12441468265836
ONEWEB-0142             
1 47288U 20100AG  26176.99965448  .00000410  00000+0  11043-2 0  9993
2 47288  87.8946 348.9156 0002229  94.9290 265.2093 13.12443929265825
ONEWEB-0143             
1 47289U 20100AH  26177.00966608  .00000410  00000+0  11037-2 0  9999
2 47289  87.8951 348.9128 0001848  92.0860 268.0480 13.12441609265801
ONEWEB-0144             
1 47290U 20100AJ  26176.98085672 -.00000141  00000+0 -42654-3 0  9993
2 47290  87.8955 348.8930 0002025 102.0651 258.0704 13.12445612265722
ONEWEB-0145             
1 47291U 20100AK  26177.18076691 -.00000003  00000+0 -44346-4 0  9996
2 47291  87.8944 348.8799 0001898  94.2783 265.8562 13.12441339265943
ONEWEB-0146             
1 47292U 20100AL  26177.17738228  .00000084  00000+0  19910-3 0  9992
2 47292  87.8953 348.8729 0001548  84.6798 275.4507 13.12441234265858
ONEWEB-0147             
1 47293U 20100AM  26176.99102919  .00000234  00000+0  61482-3 0  9992
2 47293  87.8952 348.8920 0001706  95.9703 264.1620 13.12443434265729
ONEWEB-0115             
1 48042U 21025A   26176.93614362  .00000099  00000+0  23631-3 0  9999
2 48042  87.8963 318.4814 0001770  96.8958 263.2372 13.13469779254747
ONEWEB-0152             
1 48043U 21025B   26176.94967693 -.00000234  00000+0 -67459-3 0  9998
2 48043  87.8970 318.4758 0001726  96.2535 263.8791 13.13469846254701
ONEWEB-0153             
1 48044U 21025C   26177.15620259  .00000348  00000+0  91872-3 0  9997
2 48044  87.8960 318.4367 0001980 100.6253 259.5099 13.13470454254728
ONEWEB-0154             
1 48045U 21025D   26177.15281667  .00000330  00000+0  86752-3 0  9996
2 48045  87.8963 318.4357 0001513 106.3202 253.8094 13.13468516254683
ONEWEB-0116             
1 48046U 21025E   26176.88704402 -.00000308  00000+0 -87775-3 0  9996
2 48046  87.8970 318.4857 0001721  97.3847 262.7477 13.13469717254792
ONEWEB-0150             
1 48047U 21025F   26176.86334723 -.00000046  00000+0 -16216-3 0  9991
2 48047  87.8967 318.4875 0002005  93.3154 266.8204 13.13469221254683
ONEWEB-0107             
1 48048U 21025G   26176.94121752 -.00000090  00000+0 -28260-3 0  9998
2 48048  87.8971 318.4681 0002107 101.0399 259.0967 13.13469352254679
ONEWEB-0101             
1 48049U 21025H   26176.90399581 -.00002254  00000+0 -62102-2 0  9998
2 48049  87.8955 318.4902 0001906 102.9785 257.1557 13.13450568254643
ONEWEB-0113             
1 48050U 21025J   26177.15398215  .00000225  00000+0  57886-3 0  9999
2 48050  87.8962 318.3499 0001853  94.0733 266.0608 13.13892165254782
ONEWEB-0112             
1 48051U 21025K   26176.94629087 -.00000107  00000+0 -32820-3 0  9992
2 48051  87.8967 318.4652 0001922 105.0104 255.1237 13.13470363254747
ONEWEB-0156             
1 48052U 21025L   26176.87857520  .00000658  00000+0  17677-2 0  9991
2 48052  87.8967 318.4885 0002189  91.3510 268.7870 13.13465788254715
ONEWEB-0161             
1 48053U 21025M   26176.92936007  .00000246  00000+0  63761-3 0  9995
2 48053  87.8966 318.4796 0002058  98.8076 261.3287 13.13470937254656
ONEWEB-0158             
1 48054U 21025N   26176.88872705 -.00000218  00000+0 -63117-3 0  9991
2 48054  87.8968 318.4853 0001619 101.2762 258.8549 13.13472357254779
